0 COSMOS 2251 DEB
1 36442U 93036BAR 13283.32170248  .00001621  00000-0  57130-3 0  2727
2 36442 073.9924 147.0847 0040394 241.1455 118.5553 14.35176134215155
0 COSMOS 2251 DEB
1 36442U 93036BAR 13285.27346579  .00001617  00000-0  56955-3 0  2735
2 36442 073.9975 143.4949 0040815 235.7895 123.9554 14.35182783215438
0 COSMOS 2251 DEB
1 36442U 93036BAR 13287.92226752  .00001558  00000-0  54918-3 0  2741
2 36442 073.9993 138.6270 0040579 229.5408 130.2065 14.35190608215814
0 COSMOS 2251 DEB
1 36442U 93036BAR 13289.24666789  .00001613  00000-0  56845-3 0  2750
2 36442 073.9968 136.1948 0039330 227.8485 131.9193 14.35195497216003
0 COSMOS 2251 DEB
1 36442U 93036BAR 13290.91958726  .00001647  00000-0  58028-3 0  2764
2 36442 073.9968 133.1190 0039239 224.9195 134.8804 14.35201401216243
0 COSMOS 2251 DEB
1 36442U 93036BAR 13292.24397223  .00001720  00000-0  60519-3 0  2772
2 36442 073.9982 130.6846 0039727 220.9000 138.9172 14.35206514216436
0 COSMOS 2251 DEB
1 36442U 93036BAR 13293.91687664  .00001722  00000-0  60597-3 0  2787
2 36442 073.9966 127.6110 0039659 217.4484 142.3902 14.35212330216678
0 COSMOS 2251 DEB
1 36442U 93036BAR 13295.86859005  .00001647  00000-0  57985-3 0  2797
2 36442 073.9956 124.0233 0039493 213.6267 146.2322 14.35218398216957
